{
  "links" : {
    "next" : "https://api.nasa.gov/neo/rest/v1/neo/browse?page=24&size=20&api_key=jqAGvNAwUIBu4fl9FSOjdm3V4F7hIglRzI6pdX9d",
    "prev" : "https://api.nasa.gov/neo/rest/v1/neo/browse?page=22&size=20&api_key=jqAGvNAwUIBu4fl9FSOjdm3V4F7hIglRzI6pdX9d",
    "self" : "https://api.nasa.gov/neo/rest/v1/neo/browse?page=23&size=20&api_key=jqAGvNAwUIBu4fl9FSOjdm3V4F7hIglRzI6pdX9d"
  },
  "page" : {
    "size" : 20,
    "total_elements" : 20750,
    "total_pages" : 1038,
    "number" : 23
  },
  "near_earth_objects" : [ {
    "links" : {
      "self" : "https://api.nasa.gov/neo/rest/v1/neo/3304649?api_key=jqAGvNAwUIBu4fl9FSOjdm3V4F7hIglRzI6pdX9d"
    },
    "neo_reference_id" : "3304649",
    "name" : "(2005 WG4)",
    "designation" : "2005 WG4",
    "nasa_jpl_url" : "http://ssd.jpl.nasa.gov/sbdb.cgi?sstr=3304649",
    "absolute_magnitude_h" : 24.9,
    "estimated_diameter" : {
      "kilometers" : {
        "estimated_diameter_min" : 0.0278326768,
        "estimated_diameter_max" : 0.0622357573
      },
      "meters" : {
        "estimated_diameter_min" : 27.8326768072,
        "estimated_diameter_max" : 62.2357573367
      },
      "miles" : {
        "estimated_diameter_min" : 0.0172944182,
        "estimated_diameter_max" : 0.0386714948
      },
      "feet" : {
        "estimated_diameter_min" : 91.3145593761,
        "estimated_diameter_max" : 204.1855621004
      }
    },
    "is_potentially_hazardous_asteroid" : false,
    "close_approach_data" : [ {
      "close_approach_date" : "2005-11-09",
      "epoch_date_close_approach" : 1131523200000,
      "relative_velocity" : {
        "kilometers_per_second" : "11.9290852578",
        "kilometers_per_hour" : "42944.7069281164",
        "miles_per_hour" : "26684.1708131954"
      },
      "miss_distance" : {
        "astronomical" : "0.0709804079",
        "lunar" : "27.6113777161",
        "kilometers" : "10618518",
        "miles" : "6598041"
      },
      "orbiting_body" : "Earth"
    } ],
    "orbital_data" : {
      "orbit_id" : "7",
      "orbit_determination_date" : "2017-04-06 09:09:47",
      "first_observation_date" : "2005-11-25",
      "last_observation_date" : "2005-12-03",
      "data_arc_in_days" : 8,
      "observations_used" : 20,
      "orbit_uncertainty" : "9",
      "minimum_orbit_intersection" : ".0700072",
      "jupiter_tisserand_invariant" : "3.190",
      "epoch_osculation" : "2453703.5",
      "eccentricity" : ".6057592808490159",
      "semi_major_axis" : "2.46175589086141",
      "inclination" : "10.39490929887524",
      "ascending_node_longitude" : "63.66272275972714",
      "orbital_period" : "1410.801476866141",
      "perihelion_distance" : ".9705244127873739",
      "perihelion_argument" : "309.3071697511988",
      "aphelion_distance" : "3.952987368935446",
      "perihelion_time" : "2453657.384109557447",
      "mean_anomaly" : "11.76758093292971",
      "mean_motion" : ".2551741020286424",
      "equinox" : "J2000",
      "orbit_class" : {
        "orbit_class_type" : "APO",
        "orbit_class_range" : "a (semi-major axis) > 1.0 AU; q (perihelion) < 1.017 AU",
        "orbit_class_description" : "Near-Earth asteroid orbits which cross the Earth’s orbit similar to that of 1862 Apollo"
      }
    },
    "is_sentry_object" : false
  }, {
    "links" : {
      "self" : "https://api.nasa.gov/neo/rest/v1/neo/3305003?api_key=jqAGvNAwUIBu4fl9FSOjdm3V4F7hIglRzI6pdX9d"
    },
    "neo_reference_id" : "3305003",
    "name" : "(2005 WZ55)",
    "designation" : "2005 WZ55",
    "nasa_jpl_url" : "http://ssd.jpl.nasa.gov/sbdb.cgi?sstr=3305003",
    "absolute_magnitude_h" : 24.4,
    "estimated_diameter" : {
      "kilometers" : {
        "estimated_diameter_min" : 0.0350392641,
        "estimated_diameter_max" : 0.0783501764
      },
      "meters" : {
        "estimated_diameter_min" : 35.0392641108,
        "estimated_diameter_max" : 78.3501764334
      },
      "miles" : {
        "estimated_diameter_min" : 0.0217723826,
        "estimated_diameter_max" : 0.0486845275
      },
      "feet" : {
        "estimated_diameter_min" : 114.9582192654,
        "estimated_diameter_max" : 257.0543928497
      }
    },
    "is_potentially_hazardous_asteroid" : false,
    "close_approach_data" : [ {
      "close_approach_date" : "2005-11-25",
      "epoch_date_close_approach" : 1132905600000,
      "relative_velocity" : {
        "kilometers_per_second" : "6.5410770831",
        "kilometers_per_hour" : "23547.8774993067",
        "miles_per_hour" : "14631.7353272775"
      },
      "miss_distance" : {
        "astronomical" : "0.0675453198",
        "lunar" : "26.2751274109",
        "kilometers" : "10104636",
        "miles" : "6278729.5"
      },
      "orbiting_body" : "Earth"
    } ],
    "orbital_data" : {
      "orbit_id" : "12",
      "orbit_determination_date" : "2017-04-06 09:09:45",
      "first_observation_date" : "2005-11-28",
      "last_observation_date" : "2005-12-21",
      "data_arc_in_days" : 23,
      "observations_used" : 43,
      "orbit_uncertainty" : "7",
      "minimum_orbit_intersection" : ".0663509",
      "jupiter_tisserand_invariant" : "4.071",
      "epoch_osculation" : "2458600.5",
      "eccentricity" : ".3907274693771595",
      "semi_major_axis" : "1.72040297099156",
      "inclination" : "8.502835172917752",
      "ascending_node_longitude" : "249.4828619121613",
      "orbital_period" : "824.221051493554",
      "perihelion_distance" : "1.048194271827081",
      "perihelion_argument" : "165.4087587190599",
      "aphelion_distance" : "2.392611670156038",
      "perihelion_time" : "2458637.506852021787",
      "mean_anomaly" : "343.8362940333764",
      "mean_motion" : ".4367760315605279",
      "equinox" : "J2000",
      "orbit_class" : {
        "orbit_class_type" : "AMO",
        "orbit_class_range" : "1.017 AU < q (perihelion) < 1.3 AU",
        "orbit_class_description" : "Near-Earth asteroid orbits similar to that of 1221 Amor"
      }
    },
    "is_sentry_object" : false
  }, {
    "links" : {
      "self" : "https://api.nasa.gov/neo/rest/v1/neo/3305031?api_key=jqAGvNAwUIBu4fl9FSOjdm3V4F7hIglRzI6pdX9d"
    },
    "neo_reference_id" : "3305031",
    "name" : "(2005 WG57)",
    "designation" : "2005 WG57",
    "nasa_jpl_url" : "http://ssd.jpl.nasa.gov/sbdb.cgi?sstr=3305031",
    "absolute_magnitude_h" : 23.6,
    "estimated_diameter" : {
      "kilometers" : {
        "estimated_diameter_min" : 0.0506471459,
        "estimated_diameter_max" : 0.1132504611
      },
      "meters" : {
        "estimated_diameter_min" : 50.6471458835,
        "estimated_diameter_max" : 113.2504610618
      },
      "miles" : {
        "estimated_diameter_min" : 0.0314706677,
        "estimated_diameter_max" : 0.0703705522
      },
      "feet" : {
        "estimated_diameter_min" : 166.1651821003,
        "estimated_diameter_max" : 371.5566426699
      }
    },
    "is_potentially_hazardous_asteroid" : false,
    "close_approach_data" : [ {
      "close_approach_date" : "2005-11-21",
      "epoch_date_close_approach" : 1132560000000,
      "relative_velocity" : {
        "kilometers_per_second" : "10.9409058427",
        "kilometers_per_hour" : "39387.261033563",
        "miles_per_hour" : "24473.7122794381"
      },
      "miss_distance" : {
        "astronomical" : "0.0356889101",
        "lunar" : "13.8829860687",
        "kilometers" : "5338985",
        "miles" : "3317491.5"
      },
      "orbiting_body" : "Earth"
    } ],
    "orbital_data" : {
      "orbit_id" : "19",
      "orbit_determination_date" : "2017-04-06 09:09:44",
      "first_observation_date" : "2005-11-30",
      "last_observation_date" : "2005-12-30",
      "data_arc_in_days" : 30,
      "observations_used" : 74,
      "orbit_uncertainty" : "7",
      "minimum_orbit_intersection" : ".00166492",
      "jupiter_tisserand_invariant" : "3.919",
      "epoch_osculation" : "2458600.5",
      "eccentricity" : ".4923161657882751",
      "semi_major_axis" : "1.796444146800272",
      "inclination" : ".4264427539421869",
      "ascending_node_longitude" : "161.6306336092743",
      "orbital_period" : "879.4659011117606",
      "perihelion_distance" : ".9120256523947727",
      "perihelion_argument" : "212.3199903324187",
      "aphelion_distance" : "2.680862641205771",
      "perihelion_time" : "2458938.693420377434",
      "mean_anomaly" : "221.5641252469609",
      "mean_motion" : ".4093393496495005",
      "equinox" : "J2000",
      "orbit_class" : {
        "orbit_class_type" : "APO",
        "orbit_class_range" : "a (semi-major axis) > 1.0 AU; q (perihelion) < 1.017 AU",
        "orbit_class_description" : "Near-Earth asteroid orbits which cross the Earth’s orbit similar to that of 1862 Apollo"
      }
    },
    "is_sentry_object" : true,
    "sentry_data" : "https://api.nasa.gov/neo/rest/v1/neo/sentry/3305031?api_key=jqAGvNAwUIBu4fl9FSOjdm3V4F7hIglRzI6pdX9d"
  } ]
}